{"type": "FeatureCollection", "features": [{"type": "Feature", "properties": {"norad_id": 25590, "name": "COSMOS 2361", "group": "musson", "lat": 33.070602272252685, "lon": -8.376882426972067, "alt_km": 995.7577746602692, "timestamp": "2025-12-08T19:31:49.079832+00:00", "meta": {"OBJECT_NAME": "COSMOS 2361", "OBJECT_ID": "1998-076A", "EPOCH": "2025-12-08T07:10:44.166720", "MEAN_MOTION": 13.73216775, "ECCENTRICITY": 0.00300721, "INCLINATION": 82.9339, "RA_OF_ASC_NODE": 347.3711, "ARG_OF_PERICENTER": 278.5091, "MEAN_ANOMALY": 91.8958, "EPHEMERIS_TYPE": 0, "CLASSIFICATION_TYPE": "U", "NORAD_CAT_ID": 25590, "ELEMENT_SET_NO": 999, "REV_AT_EPOCH": 35050, "BSTAR": 8.7736646e-05, "MEAN_MOTION_DOT": 9.6e-07, "MEAN_MOTION_DDOT": 0}, "tle": {"line1": "1 25590U 98076A   25342.29912230  .00000096  00000+0  87737-4 0  9995", "line2": "2 25590  82.9339 347.3711 0030072 278.5091  91.8958 13.73216775350502"}}, "geometry": {"type": "Point", "coordinates": [-8.376882426972067, 33.070602272252685]}}, {"type": "Feature", "properties": {"norad_id": 26818, "name": "COSMOS 2378", "group": "musson", "lat": 82.5247751184317, "lon": 111.52522548581206, "alt_km": 990.3511505215965, "timestamp": "2025-12-08T19:31:49.079850+00:00", "meta": {"OBJECT_NAME": "COSMOS 2378", "OBJECT_ID": "2001-023A", "EPOCH": "2025-12-08T03:39:36.671328", "MEAN_MOTION": 13.741414, "ECCENTRICITY": 0.00321516, "INCLINATION": 82.9274, "RA_OF_ASC_NODE": 3.1265, "ARG_OF_PERICENTER": 217.8988, "MEAN_ANOMALY": 205.4922, "EPHEMERIS_TYPE": 0, "CLASSIFICATION_TYPE": "U", "NORAD_CAT_ID": 26818, "ELEMENT_SET_NO": 999, "REV_AT_EPOCH": 22860, "BSTAR": 5.3869753e-05, "MEAN_MOTION_DOT": 6.6e-07, "MEAN_MOTION_DDOT": 0}, "tle": {"line1": "1 26818U 01023A   25342.15250777  .00000066  00000+0  53870-4 0  9999", "line2": "2 26818  82.9274   3.1265 0032151 217.8988 205.4922 13.74141400228608"}}, "geometry": {"type": "Point", "coordinates": [111.52522548581206, 82.5247751184317]}}, {"type": "Feature", "properties": {"norad_id": 27436, "name": "COSMOS 2389", "group": "musson", "lat": -73.44751532948145, "lon": -74.71386331423965, "alt_km": 1017.6322004500071, "timestamp": "2025-12-08T19:31:49.079862+00:00", "meta": {"OBJECT_NAME": "COSMOS 2389", "OBJECT_ID": "2002-026A", "EPOCH": "2025-12-08T08:12:12.212928", "MEAN_MOTION": 13.75153971, "ECCENTRICITY": 0.00477163, "INCLINATION": 82.9499, "RA_OF_ASC_NODE": 310.2407, "ARG_OF_PERICENTER": 72.6887, "MEAN_ANOMALY": 37.5413, "EPHEMERIS_TYPE": 0, "CLASSIFICATION_TYPE": "U", "NORAD_CAT_ID": 27436, "ELEMENT_SET_NO": 999, "REV_AT_EPOCH": 18088, "BSTAR": 9.3732817e-05, "MEAN_MOTION_DOT": 1.06e-06, "MEAN_MOTION_DDOT": 0}, "tle": {"line1": "1 27436U 02026A   25342.34180802  .00000106  00000+0  93733-4 0  9999", "line2": "2 27436  82.9499 310.2407 0047716  72.6887  37.5413 13.75153971180885"}}, "geometry": {"type": "Point", "coordinates": [-74.71386331423965, -73.44751532948145]}}, {"type": "Feature", "properties": {"norad_id": 27818, "name": "COSMOS 2398", "group": "musson", "lat": -79.90202062606218, "lon": -128.43867422890315, "alt_km": 1020.0348353961163, "timestamp": "2025-12-08T19:31:49.079873+00:00", "meta": {"OBJECT_NAME": "COSMOS 2398", "OBJECT_ID": "2003-023A", "EPOCH": "2025-12-08T06:27:54.457920", "MEAN_MOTION": 13.72385011, "ECCENTRICITY": 0.0032419, "INCLINATION": 82.9481, "RA_OF_ASC_NODE": 275.9925, "ARG_OF_PERICENTER": 123.7736, "MEAN_ANOMALY": 345.272, "EPHEMERIS_TYPE": 0, "CLASSIFICATION_TYPE": "U", "NORAD_CAT_ID": 27818, "ELEMENT_SET_NO": 999, "REV_AT_EPOCH": 12755, "BSTAR": 9.5271347e-05, "MEAN_MOTION_DOT": 1.03e-06, "MEAN_MOTION_DDOT": 0}, "tle": {"line1": "1 27818U 03023A   25342.26938030  .00000103  00000+0  95271-4 0  9992", "line2": "2 27818  82.9481 275.9925 0032419 123.7736 345.2720 13.72385011127551"}}, "geometry": {"type": "Point", "coordinates": [-128.43867422890315, -79.90202062606218]}}, {"type": "Feature", "properties": {"norad_id": 28380, "name": "COSMOS 2407", "group": "musson", "lat": 56.6022312559334, "lon": -133.40064047940564, "alt_km": 942.1038560317174, "timestamp": "2025-12-08T19:31:49.079883+00:00", "meta": {"OBJECT_NAME": "COSMOS 2407", "OBJECT_ID": "2004-028A", "EPOCH": "2025-12-08T04:06:19.908000", "MEAN_MOTION": 13.76312942, "ECCENTRICITY": 0.00404495, "INCLINATION": 82.9613, "RA_OF_ASC_NODE": 216.2751, "ARG_OF_PERICENTER": 67.2262, "MEAN_ANOMALY": 47.5663, "EPHEMERIS_TYPE": 0, "CLASSIFICATION_TYPE": "U", "NORAD_CAT_ID": 28380, "ELEMENT_SET_NO": 999, "REV_AT_EPOCH": 7360, "BSTAR": 9.361977e-05, "MEAN_MOTION_DOT": 1.07e-06, "MEAN_MOTION_DDOT": 0}, "tle": {"line1": "1 28380U 04028A   25342.17106375  .00000107  00000+0  93620-4 0  9992", "line2": "2 28380  82.9613 216.2751 0040449  67.2262  47.5663 13.76312942 73607"}}, "geometry": {"type": "Point", "coordinates": [-133.40064047940564, 56.6022312559334]}}, {"type": "Feature", "properties": {"norad_id": 28521, "name": "COSMOS 2414", "group": "musson", "lat": 22.40321324979271, "lon": 4.704352534949274, "alt_km": 906.0898179407841, "timestamp": "2025-12-08T19:31:49.079893+00:00", "meta": {"OBJECT_NAME": "COSMOS 2414", "OBJECT_ID": "2005-002A", "EPOCH": "2025-12-08T06:39:52.496352", "MEAN_MOTION": 13.87902164, "ECCENTRICITY": 0.00406371, "INCLINATION": 82.9496, "RA_OF_ASC_NODE": 188.034, "ARG_OF_PERICENTER": 152.2218, "MEAN_ANOMALY": 208.1128, "EPHEMERIS_TYPE": 0, "CLASSIFICATION_TYPE": "U", "NORAD_CAT_ID": 28521, "ELEMENT_SET_NO": 999, "REV_AT_EPOCH": 5733, "BSTAR": 8.6950372e-05, "MEAN_MOTION_DOT": 1.2e-06, "MEAN_MOTION_DDOT": 0}, "tle": {"line1": "1 28521U 05002A   25342.27769093  .00000120  00000+0  86950-4 0  9998", "line2": "2 28521  82.9496 188.0340 0040637 152.2218 208.1128 13.87902164 57334"}}, "geometry": {"type": "Point", "coordinates": [4.704352534949274, 22.40321324979271]}}, {"type": "Feature", "properties": {"norad_id": 32052, "name": "COSMOS 2429", "group": "musson", "lat": 67.21784884051684, "lon": 149.14437935913008, "alt_km": 961.4172838502009, "timestamp": "2025-12-08T19:31:49.079903+00:00", "meta": {"OBJECT_NAME": "COSMOS 2429", "OBJECT_ID": "2007-038A", "EPOCH": "2025-12-08T06:46:08.273280", "MEAN_MOTION": 13.7514869, "ECCENTRICITY": 0.00394487, "INCLINATION": 82.9803, "RA_OF_ASC_NODE": 346.5953, "ARG_OF_PERICENTER": 49.9892, "MEAN_ANOMALY": 310.4715, "EPHEMERIS_TYPE": 0, "CLASSIFICATION_TYPE": "U", "NORAD_CAT_ID": 32052, "ELEMENT_SET_NO": 999, "REV_AT_EPOCH": 91541, "BSTAR": 6.5559722e-05, "MEAN_MOTION_DOT": 7.9e-07, "MEAN_MOTION_DDOT": 0}, "tle": {"line1": "1 32052U 07038A   25342.28204020  .00000079  00000+0  65560-4 0  9995", "line2": "2 32052  82.9803 346.5953 0039448  49.9892 310.4715 13.75148690915413"}}, "geometry": {"type": "Point", "coordinates": [149.14437935913008, 67.21784884051684]}}, {"type": "Feature", "properties": {"norad_id": 35635, "name": "COSMOS 2454", "group": "musson", "lat": 0.7725724842264072, "lon": -8.474515580627756, "alt_km": 932.9713617498455, "timestamp": "2025-12-08T19:31:49.079914+00:00", "meta": {"OBJECT_NAME": "COSMOS 2454", "OBJECT_ID": "2009-039A", "EPOCH": "2025-12-08T07:24:34.074144", "MEAN_MOTION": 13.89927813, "ECCENTRICITY": 0.00204873, "INCLINATION": 82.9556, "RA_OF_ASC_NODE": 172.0039, "ARG_OF_PERICENTER": 85.5731, "MEAN_ANOMALY": 87.6807, "EPHEMERIS_TYPE": 0, "CLASSIFICATION_TYPE": "U", "NORAD_CAT_ID": 35635, "ELEMENT_SET_NO": 999, "REV_AT_EPOCH": 83088, "BSTAR": 7.1914706e-05, "MEAN_MOTION_DOT": 1.05e-06, "MEAN_MOTION_DDOT": 0}, "tle": {"line1": "1 35635U 09039A   25342.30872771  .00000105  00000+0  71915-4 0  9996", "line2": "2 35635  82.9556 172.0039 0020487  85.5731  87.6807 13.89927813830885"}}, "geometry": {"type": "Point", "coordinates": [-8.474515580627756, 0.7725724842264072]}}, {"type": "Feature", "properties": {"norad_id": 36519, "name": "COSMOS 2463", "group": "musson", "lat": 61.98617730236524, "lon": -163.8294598149193, "alt_km": 1013.3367321542592, "timestamp": "2025-12-08T19:31:49.079923+00:00", "meta": {"OBJECT_NAME": "COSMOS 2463", "OBJECT_ID": "2010-017A", "EPOCH": "2025-12-08T05:15:20.399904", "MEAN_MOTION": 13.7164866, "ECCENTRICITY": 0.00349017, "INCLINATION": 82.9616, "RA_OF_ASC_NODE": 30.0346, "ARG_OF_PERICENTER": 301.0604, "MEAN_ANOMALY": 120.7428, "EPHEMERIS_TYPE": 0, "CLASSIFICATION_TYPE": "U", "NORAD_CAT_ID": 36519, "ELEMENT_SET_NO": 999, "REV_AT_EPOCH": 78175, "BSTAR": 8.9960527e-05, "MEAN_MOTION_DOT": 9.6e-07, "MEAN_MOTION_DDOT": 0}, "tle": {"line1": "1 36519U 10017A   25342.21898611  .00000096  00000+0  89961-4 0  9996", "line2": "2 36519  82.9616  30.0346 0034901 301.0604 120.7428 13.71648660781759"}}, "geometry": {"type": "Point", "coordinates": [-163.8294598149193, 61.98617730236524]}}]}